PROBA-1                 
1 26958U 01049B   26168.60130781  .00001304  00000+0  87443-4 0  9990
2 26958  97.9594 177.1482 0056448 120.4355 240.2466 15.07495525343683
CUTE-1 (CO-55)          
1 27844U 03031E   26168.52891237  .00000222  00000+0  11503-3 0  9990
2 27844  98.6736 177.0834 0009564 176.9717 183.1521 14.24335893191721
CUBESAT XI-IV (CO-57)   
1 27848U 03031J   26167.95527530  .00000197  00000+0  10575-3 0  9991
2 27848  98.6766 176.2299 0009009 197.6805 162.4061 14.23620738191347
APRIZESAT 4             
1 35684U 09041D   26168.12218179  .00000548  00000+0  72133-4 0  9990
2 35684  98.1413 243.4414 0042406 323.2689  36.5620 14.83879249911351
APRIZESAT 3             
1 35686U 09041F   26168.36647334  .00001525  00000+0  13572-3 0  9994
2 35686  98.2062 321.5987 0062791  67.1799 293.6036 14.96242028916403
PROBA-2                 
1 36037U 09059B   26168.44679996  .00000132  00000+0  41234-4 0  9992
2 36037  98.2449 351.7959 0011957 281.2389  78.7464 14.54862537881561
APRIZESAT 5             
1 37792U 11044E   26168.34503502  .00000903  00000+0  12125-3 0  9998
2 37792  98.2452 101.3899 0052321   3.8419 356.3184 14.81076302798814
APRIZESAT 6             
1 37793U 11044F   26168.36085759  .00000610  00000+0  93227-4 0  9998
2 37793  98.2364  78.8640 0044509  85.5033  33.1516 14.76916063797175
PROBA-V                 
1 39159U 13021A   26168.54086421  .00000039  00000+0  35319-4 0  9993
2 39159  98.3584 147.1300 0005154 122.5817 237.5861 14.23596995681160
APRIZESAT 7             
1 39416U 13066A   26168.35521534  .00001023  00000+0  10660-3 0  9991
2 39416  97.7709 121.5727 0035015 208.7011 151.2281 14.91564342681253
APRIZESAT 8             
1 39425U 13066K   26168.41049376  .00000767  00000+0  89104-4 0  9991
2 39425  97.8221 115.8752 0044416 285.8061  73.8261 14.87652987679705
BUGSAT-1 (TITA)         
1 40014U 14033E   26168.56441118  .00003596  00000+0  19159-3 0  9993
2 40014  98.0434 261.1351 0028079 176.8019 183.3397 15.15588602655894
SAUDISAT 4              
1 40016U 14033G   26168.38937615  .00000526  00000+0  75815-4 0  9999
2 40016  97.7583 314.5169 0046153  73.3541 287.2731 14.79544974646104
APRIZESAT 9             
1 40018U 14033J   26168.34335318  .00000557  00000+0  89218-4 0  9995
2 40018  97.9061 301.5381 0065702 198.6583 161.2217 14.74214626643581
APRIZESAT 10            
1 40019U 14033K   26168.33073308  .00000343  00000+0  61938-4 0  9995
2 40019  97.9650 295.2869 0077389 273.3797  85.8560 14.70882505642278
TECHDEMOSAT-1 (TDS-1)   
1 40076U 14037H   26168.42300008  .00005896  00000+0  33547-3 0  9994
2 40076  98.3812 160.6591 0004495 264.7364  95.3352 15.13295674648268
TECHNOSAT               
1 42829U 17042E   26168.44873474  .00003130  00000+0  22414-3 0  9995
2 42829  97.4288 326.0959 0018967  93.3985 266.9412 15.04963189486742
FLYING LAPTOP           
1 42831U 17042G   26168.58547089  .00002893  00000+0  22936-3 0  9997
2 42831  97.4686 324.1025 0019596 120.3447 239.9718 15.01148097486517
HAWK-A                  
1 43765U 18099H   26168.15121775  .00005029  00000+0  20357-3 0  9999
2 43765  97.3910 220.3877 0033102 286.0239  73.7353 15.24642469413092
HAWK-B                  
1 43794U 18099AN  26168.10700359  .00004680  00000+0  20062-3 0  9992
2 43794  97.3960 219.7593 0030487 305.2659  54.5726 15.22825315413024
HAWK-C                  
1 43799U 18099AT  26168.58622054  .00005807  00000+0  21008-3 0  9997
2 43799  97.3887 221.7312 0038736 284.3136  75.3804 15.28107458413970
SALSAT                  
1 46495U 20068K   26168.53797512  .00006219  00000+0  21821-3 0  9990
2 46495  97.8847 171.6239 0008040 306.6544  53.3955 15.29803905315418
HAWK-2C                 
1 47502U 21006CT  26168.60869416  .00005190  00000+0  15671-3 0  9997
2 47502  97.2273 212.9102 0006737 184.1781 175.9408 15.34667560299568
HAWK-2A                 
1 47505U 21006CW  26168.15476427  .00005033  00000+0  15202-3 0  9992
2 47505  97.2315 213.1431 0006103 188.7949 171.3189 15.34677571299490
HAWK-2B                 
1 47508U 21006CZ  26168.60669390  .00005900  00000+0  17724-3 0  9992
2 47508  97.2185 211.9174 0006747 185.4746 174.6425 15.34771289299569
HAWK-3B                 
1 48931U 21059BE  26168.51552448  .00036660  00000+0  31108-3 0  9995
2 48931  97.6650   5.2542 0003195 330.6002  29.5079 15.69577683277904
HAWK-3C                 
1 48948U 21059BX  26168.51519967  .00034353  00000+0  29163-3 0  9997
2 48948  97.6772  10.9402 0003528 331.2504  28.8563 15.69577806277906
HAWK-3A                 
1 48957U 21059CG  26168.51506151  .00036520  00000+0  30965-3 0  9998
2 48957  97.6717   8.1459 0003696 333.9883  26.1192 15.69595385277902
HAWK-5C                 
1 52754U 22057Y   26168.43111723  .00015508  00000+0  26483-3 0  9998
2 52754  97.6601 328.1130 0004985  82.4478 277.7340 15.51400159226383
HAWK-5B                 
1 52756U 22057AA  26168.43096569  .00015212  00000+0  25978-3 0  9990
2 52756  97.6610 326.4621 0005655  75.3473 284.8405 15.51400967226380
